satname,norad_id,inclination_deg,eccentricity,mean_motion_rev_per_day,perigee_km,apogee_km,l1,l2
STARLINK-1008,44714,53.1518,0.000297,15.48004615,420.5440803041238,424.58369663187295,1 44714U 19074B   26152.37556568  .00062359  00000+0  11724-2 0  9993,2 44714  53.1518 144.3189 0002970  63.4627 296.6686 15.48004615361761
STARLINK-1012,44718,53.1563,0.0003089,15.48296695,419.6081058656746,423.8090504638649,1 44718U 19074F   26152.50378688  .00068457  00000+0  12723-2 0  9992,2 44718  53.1563 144.0030 0003089  63.4737 296.6588 15.48296695361774
STARLINK-1017,44723,53.046,0.0005721,15.30809097,469.4772560058873,477.31678122999074,1 44723U 19074L   26152.41264321  .00035344  00000+0  11769-2 0  9994,2 44723  53.0460 143.0571 0005721  18.6418 341.4790 15.30809097361767
STARLINK-1020,44725,53.157,0.0003643,15.53359573,404.45354599732855,409.3971424213196,1 44725U 19074N   26152.48273420  .00063183  00000+0  98223-3 0  9996,2 44725  53.1570 168.3948 0003643  30.8231 329.2993 15.53359573361415
STARLINK-1036,44741,53.0412,0.0003082,15.6837361,361.47591320913034,365.63149135801905,1 44741U 19074AE  26151.97405492  .00068014  00000+0  59321-3 0  9997,2 44741  53.0412 140.7771 0003082 356.0591   4.0400 15.68373610361756
STARLINK-1039,44744,53.0594,0.0003916,15.28062796,478.91753727729065,484.2900862810766,1 44744U 19074AH  26152.23438756  .00037603  00000+0  13613-2 0  9992,2 44744  53.0594 189.1396 0003916  21.2340 338.8820 15.28062796361108
STARLINK-1042,44747,53.0434,0.0003377,15.53807911,403.3292254746939,407.91097502020057,1 44747U 19074AL  26152.11496053  .00029699  00000+0  46000-3 0  9999,2 44747  53.0434  53.2549 0003377  77.2747 282.8640 15.53807911363023
STARLINK-1043,44748,53.0473,0.0001069,15.61965442,381.25757383578184,382.702886899634,1 44748U 19074AM  26152.36406603  .00037728  00000+0  42886-3 0  9999,2 44748  53.0473 148.7933 0001069  73.5794 286.5337 15.61965442361688
STARLINK-1046,44751,53.0468,0.0007437,15.5416683,399.5313302518334,409.6199370231052,1 44751U 19074AQ  26152.42914065  .00039088  00000+0  59413-3 0  9991,2 44751  53.0468 169.7054 0007437  35.6523 324.4982 15.54166830361399
STARLINK-1047,44752,53.0679,0.0003744,15.34406276,460.1233830740275,465.2457902781307,1 44752U 19074AR  26152.30973675  .00011207  00000+0  34223-3 0  9996,2 44752  53.0679 114.8233 0003744  94.1233 266.0197 15.34406276362174
STARLINK-1048,44753,53.0439,0.0007147,15.66546909,363.9715017916151,373.6155642955482,1 44753U 19074AS  26152.08651052  .00051632  00000+0  48672-3 0  9993,2 44753  53.0439 122.1335 0007147  35.2835 324.8652 15.66546909362025
STARLINK-1063,44768,53.1546,0.0002382,15.48044931,420.82591458187017,424.06571223417814,1 44768U 19074BH  26152.58184269  .00065390  00000+0  12269-2 0  9993,2 44768  53.1546 184.3568 0002382  32.4951 327.6203 15.48044931361236
STARLINK-1067,44771,53.0416,0.0007133,15.73485506,344.14587929257686,353.7427334842696,1 44771U 19074BL  26152.05012009  .00081851  00000+0  57405-3 0  9993,2 44771  53.0416 154.5207 0007133   4.2501 355.8576 15.73485506361579
STARLINK-1068,44772,53.0413,0.0002385,15.74282553,345.06966817534794,348.27740280077614,1 44772U 19074BM  26152.50225759  .00077870  00000+0  52883-3 0  9993,2 44772  53.0413 125.9578 0002385  92.9792 267.1500 15.74282553362009
STARLINK-1114,44927,53.0416,0.0003044,15.64645648,372.2026338882815,376.3134920026032,1 44927U 20001P   26152.60576048  .00061871  00000+0  62788-3 0  9997,2 44927  53.0416 282.0293 0003044 341.0956  18.9945 15.64645648353176
STARLINK-1123,44930,53.1452,0.000421,15.56981814,393.54577300639176,399.24993135192744,1 44930U 20001S   26152.61523854  .00085786  00000+0  11619-2 0  9996,2 44930  53.1452 308.5653 0004210 281.3020  78.7519 15.56981814352819
STARLINK-1094,44941,53.1538,0.0005455,15.53786848,401.9808338506864,409.3819797324968,1 44941U 20001AD  26152.58335648  .00054685  00000+0  83868-3 0  9996,2 44941  53.1538 283.5763 0005455 312.8660 177.0288 15.53786848  5821
STARLINK-1122,44949,53.1561,0.0004346,15.53270499,404.2358387956192,410.13364045169874,1 44949U 20001AM  26152.57001041  .00082937  00000+0  12878-2 0  9993,2 44949  53.1561 284.2336 0004346 312.0582  48.0059 15.53270499353157
STARLINK-1080,44961,53.0457,0.0001725,15.66990182,366.35745780088837,368.6847098398057,1 44961U 20001AZ  26152.49593891  .00049182  00000+0  45630-3 0  9995,2 44961  53.0457 243.0545 0001725  30.2176 329.8938 15.66990182353715
STARLINK-1090,44968,53.1501,0.0003338,15.49666861,415.43139926287313,419.96829994366817,1 44968U 20001BG  26152.60613215  .00073373  00000+0  12983-2 0  9991,2 44968  53.1501 271.6203 0003338 323.0751  37.0028 15.49666861353336
STARLINK-1132,45044,53.1523,0.000316,15.54402404,401.7472030714889,406.0334443400716,1 45044U 20006A   26151.57304888  .00046901  00000+0  70534-3 0  9994,2 45044  53.1523 217.8639 0003160   4.3952 355.7087 15.54402404349771
STARLINK-1131,45047,53.1562,0.0004274,15.51440262,409.61780197543976,415.42245568916496,1 45047U 20006D   26152.47421028  .00074541  00000+0  12382-2 0  9990,2 45047  53.1562 246.2049 0004274 336.5891  23.4924 15.51440262349452
STARLINK-1134,45048,53.0247,0.000839,15.56657111,391.6552608306938,403.0245110452979,1 45048U 20006E   26152.58335648  .00168539  00000+0  22777-2 0  9995,2 45048  53.0247 195.8804 0008390  37.1595 191.3001 15.56657111  5928
STARLINK-1156,45054,53.157,0.0003911,15.3448405,459.7780823772109,465.1287922172651,1 45054U 20006L   26152.48368996  .00039220  00000+0  11626-2 0  9998,2 45054  53.1570 250.9915 0003911 331.1218  28.9567 15.34484050349383
STARLINK-1166,45060,53.0455,0.0004977,15.58380664,388.97355806459746,395.7128940816301,1 45060U 20006S   26152.48968105  .00090603  00000+0  11633-2 0  9993,2 45060  53.0455 229.4029 0004977 345.1408  14.9456 15.58380664349673
STARLINK-1169,45061,53.1559,0.0004567,15.37685303,449.83625657662833,456.07577693813346,1 45061U 20006T   26152.53149616  .00053188  00000+0  14166-2 0  9999,2 45061  53.1559 249.4979 0004567 307.8732  52.1859 15.37685303349414
STARLINK-1171,45062,53.0388,0.0002909,15.73299032,347.51878123992356,351.43290639245606,1 45062U 20006U   26151.41992763  .00089948  00000+0  63556-3 0  9996,2 45062  53.0388 201.3163 0002909 337.7021  22.3869 15.73299032349978
STARLINK-1133,45064,53.1572,0.0004829,15.34464386,459.20852879466474,465.81522748116913,1 45064U 20006W   26152.51983436  .00039924  00000+0  11837-2 0  9990,2 45064  53.1572 227.5978 0004829 348.6775  11.4118 15.34464386349722
STARLINK-1167,45071,53.1562,0.0003573,15.36827526,453.05596269358375,457.9392779932805,1 45071U 20006AD  26152.46721666  .00048259  00000+0  13234-2 0  9991,2 45071  53.1562 227.0181 0003573 309.6026  50.4662 15.36827526349729
STARLINK-1168,45072,53.1562,0.0004193,15.34617246,459.1895218846503,464.92570908919697,1 45072U 20006AE  26152.43499378  .00048293  00000+0  14212-2 0  9996,2 45072  53.1562 228.1988 0004193 349.7485  10.3432 15.34617246349702
STARLINK-1172,45074,53.1534,0.0003723,15.37844774,449.9407226283938,455.02680284832877,1 45074U 20006AG  26152.42894416  .00055530  00000+0  14706-2 0  9999,2 45074  53.1534 226.5808 0003723 318.5279  41.5442 15.37844774349729
STARLINK-1153,45080,53.1568,0.0004762,15.36837036,452.2152657567185,458.7235925198311,1 45080U 20006AN  26152.51558005  .00047187  00000+0  12939-2 0  9992,2 45080  53.1568 226.7066 0004762 317.4562  42.6072 15.36837036349732
STARLINK-1151,45081,53.0477,0.0004511,15.76905951,336.1828433396231,342.2432365456598,1 45081U 20006AP  26152.10154102  .00090142  00000+0  54433-3 0  9993,2 45081  53.0477 186.7917 0004511 353.6007   6.4954 15.76905951350239
STARLINK-1185,45087,53.1576,0.0005285,15.45210452,427.16126883413654,434.3582727208486,1 45087U 20006AV  26152.43220736  .00058911  00000+0  12201-2 0  9996,2 45087  53.1576 207.6011 0005285 354.7105   5.3846 15.45210452349994
STARLINK-1183,45088,53.1566,0.0004782,15.34385885,459.47388341848455,466.01650314814196,1 45088U 20006AW  26152.47896732  .00043496  00000+0  12913-2 0  9998,2 45088  53.1566 212.5992 0004782 355.5658   4.5302 15.34385885349922
STARLINK-1152,45096,53.0324,0.0004527,15.47907209,419.7703799684605,425.92799286164063,1 45096U 20006BE  26152.06743235  .00064302  00000+0  12122-2 0  9992,2 45096  53.0324 170.2400 0004527  40.4543 319.6799 15.47907209350461
STARLINK-1184,45098,53.0508,0.0004701,15.14003967,520.7593921419711,527.2487851935375,1 45098U 20006BG  26152.46976269  .00025132  00000+0  13796-2 0  9999,2 45098  53.0508 225.9036 0004701  18.9960 341.1207 15.14003967349719
STARLINK-1193,45100,53.0449,0.0003964,15.67222161,364.18169437980123,369.5291243619504,1 45100U 20006BJ  26152.46043300  .00053402  00000+0  49001-3 0  9994,2 45100  53.0449 181.0593 0003964 319.2695  40.8023 15.67222161350346
STARLINK-1143,45179,53.0347,0.0006969,15.87236937,305.37247873634897,314.6944507300941,1 45179U 20012B   26152.58335648  .00228065  00000+0  83296-3 0  9992,2 45179  53.0347 272.5418 0006969 333.4986 114.5567 15.87236937  5998
STARLINK-1202,45183,53.156,0.0002624,15.34087147,461.83798275937534,465.4285437935423,1 45183U 20012F   26151.90204839  .00049390  00000+0  14778-2 0  9999,2 45183  53.1560  12.0417 0002624 152.5624 207.5518 15.34087147347706
STARLINK-1216,45185,53.1569,0.000273,15.34388726,460.8691905826563,464.6043076496735,1 45185U 20012H   26152.01279687  .00049833  00000+0  14767-2 0  9997,2 45185  53.1569  11.3958 0002730 145.7475 214.3704 15.34388726347660
STARLINK-1225,45187,53.1575,0.0002585,15.3432528,461.1569181932464,464.6937474193064,1 45187U 20012K   26152.01126925  .00033615  00000+0  10039-2 0  9994,2 45187  53.1575  11.8625 0002585 149.8725 210.2426 15.34325280347703
STARLINK-1230,45189,53.157,0.0002873,15.34279236,461.09672327803946,465.0276763382499,1 45189U 20012M   26152.08701399  .00070079  00000+0  20737-2 0  9998,2 45189  53.1570  11.5734 0002873 157.5412 202.5717 15.34279236344946
